P/2012 K3 (Gibbs),e,13.1842,125.8149,172.1990,3.630689,0.1424690,0.42181559,247.0212,05/14.0/2024,2000,g 15.0,4.0
# From MPC 88326
P/2012 NJ (La Sagra),e,84.4360,315.6496,338.4054,8.467732,0.0399994,0.84643170,174.0465,05/14.0/2024,2000,g 14.5,4.0
# From MPC 81470
P/2012 O1 (McNaught),e,7.4278,91.9467,238.3021,3.542521,0.1478207,0.59374551,280.7598,05/14.0/2024,2000,g 17.5,4.0
# From MPC 80899
P/2012 O2 (McNaught),e,24.4597,120.6733,183.4513,3.628166,0.1426177,0.53134324,261.9448,05/14.0/2024,2000,g 17.0,4.0
# From MPC 82320
P/2012 T2 (PANSTARRS),e,12.5706,73.8822,310.9770,5.721735,0.0720133,0.16246877,289.4273,05/14.0/2024,2000,g 10.0,4.0
# From MPC 80900
P/2012 T3 (PANSTARRS),e,9.5559,114.3470,195.5156,6.154027,0.0645602,0.61590219,283.6405,05/14.0/2024,2000,g 15.0,4.0
# From MPC 82720
P/2012 U2 (PANSTARRS),e,10.7619,185.3197,228.3457,7.127370,0.0517977,0.50061555,217.0383,05/14.0/2024,2000,g 12.5,4.0
# From MPC 84024
P/2012 US27 (Siding Spring),e,39.3665,49.2290,0.8495,5.163096,0.0840115,0.64847828,346.5436,05/14.0/2024,2000,g 13.5,4.0
# From MPC 82721
P/2013 AL76 (Catalina),e,144.8896,146.0432,27.0682,6.501153,0.0594591,0.68581136,248.7968,05/14.0/2024,2000,g 16.0,4.0
# From MPC 91612
P/2013 G1 (Kowalski),e,5.4568,221.3089,51.4739,6.903400,0.0543387,0.51009178,207.3952,05/14.0/2024,2000,g 11.0,4.0
# From MPC 84025
P/2013 G4 (PANSTARRS),e,5.9181,339.5920,214.5711,4.434578,0.1055421,0.40905939,73.3542,05/14.0/2024,2000,g 15.0,4.0
# From MPC 91613
P/2013 J2 (McNaught),e,15.5052,289.3246,37.8776,6.225701,0.0634485,0.65645490,248.0734,05/14.0/2024,2000,g 13.0,4.0
# From MPC 86229
P/2013 N3 (PANSTARRS),e,2.1697,17.5513,323.9390,7.400928,0.0489525,0.59190675,183.0422,05/14.0/2024,2000,g 13.0,4.0
# From MPC 85834
P/2013 N5 (PANSTARRS),e,23.4410,187.1712,176.9578,6.797507,0.0556134,0.73208999,220.2592,05/14.0/2024,2000,g 17.0,4.0
# From MPC 85834
P/2013 P1 (PANSTARRS),e,18.7029,160.6523,138.2174,8.589446,0.0391522,0.60316714,160.4871,05/14.0/2024,2000,g 12.0,4.0
# From MPEC 2022-V95
P/2013 R3 (Catalina-PANSTARRS),e,0.8649,342.0404,11.3059,3.031437,0.1867374,0.27568302,10.1600,05/14.0/2024,2000,g 14.0,4.0
# From unp
P/2013 R3-A (Catalina-PANSTARRS),e,0.8641,341.9953,11.3847,3.031199,0.1867593,0.27561544,10.2309,05/14.0/2024,2000,g  9.0,4.0
# From MPEC 2015-M77
P/2013 R3-B (Catalina-PANSTARRS),e,0.8653,342.0512,11.3196,3.031412,0.1867397,0.27565928,10.1557,05/14.0/2024,2000,g  9.0,4.0
# From MPC 85835
P/2013 T1 (PANSTARRS),e,24.2849,10.1031,346.1759,5.854941,0.0695697,0.62396428,273.2832,05/14.0/2024,2000,g 16.5,4.0
# From MPC 86643
P/2013 T2 (Schwartz),e,9.4509,0.8193,345.5807,3.492867,0.1509841,0.50052166,245.5232,05/14.0/2024,2000,g 16.0,4.0
# From MPC 91613
P/2013 W1 (PANSTARRS),e,4.6986,117.8303,1.2235,3.486025,0.1514287,0.59348904,203.1064,05/14.0/2024,2000,g 17.5,4.0
# From MPC101095
P/2013 YG46 (Spacewatch),e,7.8492,48.8349,242.7290,3.282045,0.1657629,0.45684458,81.6568,05/14.0/2024,2000,g 10.0,4.0
# From MPC 89728
P/2014 A2 (Hill),e,24.5593,106.6514,356.1558,5.924670,0.0683452,0.64640480,264.2958,05/14.0/2024,2000,g 15.0,4.0
# From MPEC 2024-F34
P/2014 C1 (TOTAS),e,3.2738,40.1657,188.6004,3.993957,0.1234807,0.35176055,174.3190,05/14.0/2024,2000,g 15.5,4.0
# From MPEC 2022-WD2
C/2014 F3 (Sheppard-Trujillo),e,6.5213,326.0125,5.0567,14.43099,0.0179788,0.60336600,19.4400,05/14.0/2024,2000,g  6.0,4.0
# From MPC 98560
P/2014 L2 (NEOWISE),e,5.1952,149.3552,182.7145,6.308566,0.0622025,0.64693493,223.0158,05/14.0/2024,2000,g 12.0,4.0
# From MPC 90769
P/2014 L3 (Hill),e,6.2603,115.5246,178.6884,8.182502,0.0421090,0.77158998,152.0131,05/14.0/2024,2000,g 16.0,4.0
# From MPC 91614
P/2014 M4 (PANSTARRS),e,3.3459,263.2036,148.0860,5.864801,0.0693944,0.59611945,237.2295,05/14.0/2024,2000,g 15.0,4.0
# From MPEC 2022-K19
P/2014 MG4 (Spacewatch-PANSTARRS),e,9.3646,311.6979,298.9559,5.014193,0.0877814,0.25873123,349.8244,05/14.0/2024,2000,g  9.5,4.0
# From MPC 98560
P/2014 O3 (PANSTARRS),e,7.7901,87.6281,204.7704,7.584033,0.0471904,0.38298623,173.9528,05/14.0/2024,2000,g 10.5,4.0
# From MPEC 2024-A43
C/2014 OG392 (PANSTARRS),e,9.0327,145.8207,254.9057,12.25969,0.0229607,0.18626765,20.0230,05/14.0/2024,2000,g  6.0,4.0
# From MPC 91616
P/2014 U4 (PANSTARRS),e,6.4258,11.9261,347.8532,3.510874,0.1498240,0.46428121,177.6270,05/14.0/2024,2000,g 18.0,4.0
# From MPEC 2024-JU4
C/2014 UN271 (Bernardinelli-Bernstein),h,01/17.8738/2031,95.4371,189.9210,326.1198,1.003308,10.956687,2000,2.5,3.2
# From MPC 95211
P/2014 V1 (PANSTARRS),e,22.5116,166.2058,177.6646,5.479803,0.0768346,0.53386460,260.7232,05/14.0/2024,2000,g 14.0,4.0
# From MPC105542
P/2014 W4 (PANSTARRS),e,15.2861,33.3379,67.6455,6.582559,0.0583596,0.35457913,178.1646,05/14.0/2024,2000,g 11.0,4.0
# From MPC 94281
P/2014 X1 (Elenin),e,26.0540,61.5579,33.9020,6.200953,0.0638288,0.71053319,218.1160,05/14.0/2024,2000,g 15.0,4.0
# From MPC 92275
P/2015 A3 (PANSTARRS),e,172.5489,277.4423,249.6097,7.817807,0.0450896,0.85037215,151.9929,05/14.0/2024,2000,g 20.0,4.0
# From MPC 99270
P/2015 B1 (PANSTARRS),e,18.0729,352.8746,188.7458,9.480546,0.0337640,0.36637654,107.1294,05/14.0/2024,2000,g  8.5,4.0
# From MPC109141
P/2015 B4 (Lemmon-PANSTARRS),e,1.7667,266.1183,227.1176,8.508189,0.0397144,0.56178648,134.4626,05/14.0/2024,2000,g 11.0,4.0
# From MPC101096
P/2015 C1 (TOTAS-Gibbs),e,13.9475,348.7871,178.0003,6.563158,0.0586185,0.56366245,193.8591,05/14.0/2024,2000,g 12.5,4.0
# From MPC109141
P/2015 D5 (Kowalski),e,20.5513,74.0877,39.5955,8.946219,0.0368337,0.49124892,135.9567,05/14.0/2024,2000,g  9.0,4.0
# From MPC 96866
P/2015 D6 (Lemmon-PANSTARRS),e,20.2281,45.7095,124.9650,7.127967,0.0517912,0.36237443,168.1087,05/14.0/2024,2000,g 10.5,4.0
# From MPC 95213
P/2015 K5 (PANSTARRS),e,39.9340,134.2769,106.1939,6.727799,0.0564800,0.55142384,185.0034,05/14.0/2024,2000,g 13.5,4.0
# From MPC107684
P/2015 M2 (PANSTARRS),e,3.9680,86.7010,225.9352,7.251734,0.0504709,0.17835260,160.0293,05/14.0/2024,2000,g  8.5,4.0
# From MPC 99819
P/2015 P4 (PANSTARRS),e,8.7206,104.7039,280.7005,6.047018,0.0662815,0.58560404,200.8925,05/14.0/2024,2000,g 14.0,4.0
# From MPEC 2022-K19
P/2015 PD229 (Cameron-ISON),e,2.0223,342.7368,352.7228,7.201616,0.0509987,0.32616023,162.9460,05/14.0/2024,2000,g 11.5,2.0
# From MPC 96867
P/2015 Q2 (Pimentel),e,146.5599,228.5616,244.6802,7.351509,0.0494469,0.75144973,156.6476,05/14.0/2024,2000,g 15.5,4.0
# From MPC 98562
P/2015 R1 (PANSTARRS),e,22.6886,48.3748,300.5519,5.882330,0.0690844,0.63358539,223.8072,05/14.0/2024,2000,g 14.0,4.0
# From MPC 95734
P/2015 R2 (PANSTARRS),e,15.4811,168.6086,149.8674,4.482731,0.1038461,0.45235271,337.5997,05/14.0/2024,2000,g 14.5,4.0
# From MPC102953
P/2015 TO19 (Lemmon-PANSTARRS),e,6.5045,321.6607,89.2700,4.548519,0.1016012,0.35970162,303.2812,05/14.0/2024,2000,g 14.0,4.0
# From MPC110080
P/2015 TP200 (LINEAR),e,8.7815,6.9666,82.4918,7.262084,0.0503631,0.53715365,138.5455,05/14.0/2024,2000,g 11.0,4.0
# From MPC101098
P/2015 W2 (Catalina),e,11.6160,294.1239,117.6233,7.291438,0.0500592,0.63558718,157.2616,05/14.0/2024,2000,g 13.0,4.0
# From MPEC 2023-J29
P/2015 X3 (PANSTARRS),e,24.4216,77.2558,306.9268,5.000459,0.0881433,0.44009426,281.3508,05/14.0/2024,2000,g 15.0,4.0
# From MPC115881
P/2015 X6 (PANSTARRS),e,4.5654,106.9383,329.8334,2.751283,0.2159738,0.17360539,281.6370,05/14.0/2024,2000,g 16.0,4.0
# From MPC100282
P/2016 A2 (Christensen),e,26.4051,291.5948,141.3373,4.753595,0.0950979,0.27134088,309.8898,05/14.0/2024,2000,g 11.5,4.0
# From MPEC 2022-OB6
P/2016 A3 (PANSTARRS),e,8.5152,187.1745,340.8159,7.871869,0.0446259,0.38644312,114.9462,05/14.0/2024,2000,g 10.0,4.0
# From MPC102098
P/2016 A7 (PANSTARRS),e,16.6006,221.4503,352.4621,5.037504,0.0871728,0.56649352,262.8091,05/14.0/2024,2000,g 16.0,4.0
# From MPEC 2021-P47
P/2016 G1 (PANSTARRS),e,10.9708,204.0170,111.1095,2.583917,0.2372937,0.21021733,272.8694,05/14.0/2024,2000,g 14.0,4.0
# From MPEC 2024-C04
C/2016 J2 (Denneau),h,04/13.7344/2016,130.3354,186.4275,318.4023,1.000542,1.498227,2000,17.0,4.0
# From MPC102099
P/2016 P1 (PANSTARRS),e,24.3813,319.3862,270.6904,3.202263,0.1719961,0.28827115,183.7373,05/14.0/2024,2000,g 15.0,4.0
# From MPEC 2024-H50
C/2016 Q2 (PANSTARRS),h,05/12.2837/2021,109.3551,322.3349,84.5505,1.003194,7.080814,2000,6.0,4.0
# From MPEC 2022-K19
P/2016 R4 (Gibbs),e,10.8709,168.2816,174.1306,5.335014,0.0799836,0.47539662,228.0589,05/14.0/2024,2000,g 12.5,4.0
# From MPC105543
P/2016 S1 (PANSTARRS),e,94.7395,227.6774,273.2001,8.270591,0.0414380,0.71132399,108.2839,05/14.0/2024,2000,g 12.0,4.0
# From MPC106345
P/2016 WM48 (Lemmon),e,117.6343,59.9536,36.1772,8.173172,0.0421811,0.78372471,111.1364,05/14.0/2024,2000,g 15.0,4.0
# From MPEC 2021-P47
C/2016 X1 (Lemmon),e,26.4680,256.3055,224.5368,1848,0.0000124,0.99591231,0.0000,04/29.1359/2019,2000,g  6.0,4.0
# From MPEC 2022-OB6
C/2017 B3 (LINEAR),e,54.1836,2.1992,284.8219,6380,0.0000019,0.99938345,0.0000,01/31.0320/2019,2000,g  6.0,4.0
# From MPC103847
P/2017 B4 (PANSTARRS),e,20.0584,121.4578,11.0197,4.410520,0.1064068,0.36495152,359.9130,01/05.0/2017,2000,g 14.5,4.0
# From MPEC 2022-OB6
P/2017 D1 (Fuls),e,20.7722,82.1996,7.9980,4.825036,0.0929936,0.43763678,267.7628,05/14.0/2024,2000,g 14.0,4.0
# From MPEC 2022-OB6
P/2017 D4 (PANSTARRS),e,10.5581,264.9069,212.1249,7.543463,0.0475716,0.63004804,133.4445,05/14.0/2024,2000,g 13.0,4.0
# From MPEC 2024-C04
P/2017 G1 (PANSTARRS),e,5.1551,247.1378,225.2335,7.194144,0.0510782,0.65030219,150.5785,05/14.0/2024,2000,g 13.5,4.0
# From MPC108595
P/2017 G2 (PANSTARRS),e,47.9678,79.8935,105.2725,8.041711,0.0432197,0.64809373,109.3848,05/14.0/2024,2000,g 13.0,4.0
# From MPEC 2024-JU4
C/2017 K2 (PANSTARRS),h,12/19.5620/2022,87.5878,88.2274,236.2084,1.000394,1.797972,2000,1.5,4.0
# From MPEC 2021-N06
P/2017 K3 (Gasparovic),e,4.2734,354.2928,253.3162,5.584982,0.0746743,0.57894800,190.2299,05/14.0/2024,2000,g 14.5,4.0
# From MPEC 2021-P47
C/2017 K5 (PANSTARRS),h,03/26.6769/2020,82.2713,102.4376,172.0223,1.003826,7.684034,2000,5.0,4.0
# From MPEC 2022-OB6
